ELFIN-A                 
1 43617U 18070E   21089.44156106  .00008061  00000-0  17689-3 0  9993
2 43617  93.0238 273.9871 0011835 312.9943  47.0321 15.43989463142594
CUBEBEL-1 (BSUSAT-1)    
1 43666U 18083E   21089.54906490  .00002227  00000-0  10908-3 0  9996
2 43666  97.4639 118.8909 0016549  84.6954  67.3794 15.19085262134038
CICERO 10               
1 43690U 18088A   21089.43751347  .00001710  00000-0  75231-4 0  9992
2 43690  85.0355 249.7741 0013990 349.2561  10.8379 15.20986617132218
IRVINE01                
1 43693U 18088D   21089.43315416  .00005113  00000-0  20344-3 0  9993
2 43693  85.0327 247.4374 0015329 322.4586  37.5586 15.24896761132394
PROXIMA I               
1 43694U 18088E   21089.43140904  .00001896  00000-0  79330-4 0  9996
2 43694  85.0301 247.5881 0017180 316.2750  43.7130 15.22718045132358
PROXIMA II              
1 43696U 18088G   21089.49528488  .00001937  00000-0  81094-4 0  9997
2 43696  85.0303 247.5532 0017213 315.9443  44.0426 15.22717300132352
FACSAT-1                
1 43721U 18096C   21089.52042045  .00003105  00000-0  11437-3 0  9991
2 43721  97.3893 167.2686 0016787 185.3531 271.0865 15.28467389130061
CENTAURI-2              
1 43722U 18096D   21089.26641079  .00003876  00000-0  13796-3 0  9990
2 43722  97.3915 167.6602 0016718 185.5927 174.5130 15.29441457130054
INNOSAT-2               
1 43738U 18096V   21089.49000314  .00006512  00000-0  20729-3 0  9997
2 43738  97.3961 171.2012 0021777 188.3112 227.7884 15.32691238130309
SIRION PATHFINDER-2     
1 43759U 18099B   21089.44004704 -.00000070  00000-0 -11291-5 0  9996
2 43759  97.6709 161.7213 0013099 311.8526  48.1576 14.95462699126675
CORVUS BC4              
1 43767U 18099K   21089.35442523  .00000437  00000-0  45240-4 0  9995
2 43767  97.6685 160.7250 0010575 318.5718  41.4700 14.94893830126613
MOVE-II                 
1 43780U 18099Y   21089.47853785  .00001286  00000-0  12028-3 0  9999
2 43780  97.6731 161.8363 0012182 323.8696  36.1701 14.95803125126663
SPACEBEE-7              
1 43816U 18099BL  21089.23375373  .00000424  00000-0  42886-4 0  9994
2 43816  97.6746 162.1523 0011976 307.4980  52.5152 14.96028183126212
SPACEBEE-5              
1 43817U 18099BM  21089.16670623  .00001663  00000-0  14903-3 0  9997
2 43817  97.6832 163.1224 0011379 306.6963  53.3213 14.97102191126240
SPACEBEE-6              
1 43818U 18099BN  21089.48410085  .00001510  00000-0  13840-3 0  9997
2 43818  97.6771 162.7156 0011615 305.5911  54.4227 14.96354420126415
SHIELDS 1               
1 43850U 18104B   21089.15601684  .00000938  00000-0  39432-4 0  9990
2 43850  85.0322 346.4146 0017087  98.6995 261.6183 15.21771629126916
STF-1                   
1 43852U 18104D   21089.21510765  .00001767  00000-0  75025-4 0  9997
2 43852  85.0362 347.0409 0016501 110.8228 249.4784 15.22172044126904
ZACUBE-2                
1 43907U 18111AH  21089.53511888  .00001122  00000-0  47447-4 0  9990
2 43907  97.2416 346.3005 0020226 208.5767 272.6744 15.25054571125603
LUME 1                  
1 43908U 18111AJ  21089.44985439  .00001915  00000-0  76991-4 0  9994
2 43908  97.2417 346.6647 0019712 206.9862 153.0354 15.25950149125623
AOBA VELOX-IV           
1 43940U 19003J   21089.53685537  .00004084  00000-0  15757-3 0  9999
2 43940  97.1879 136.5842 0021052 290.8851  69.0134 15.26642974122267
CATSAT-2                
1 44029U 98067PV  21089.55140253  .00395922  80238-4  65800-3 0  9991
2 44029  51.6354 284.8835 0007066 253.4328 106.5907 16.02379195123613
DELPHINI                
1 44030U 98067PW  21073.20127863  .06612467  12175-4  91963-3 0  9996
2 44030  51.6130   1.9822 0006321 224.0789 135.9732 16.34207165121093
UNITE                   
1 44031U 98067PX  21089.04084184  .00034094  00000-0  25390-3 0  9993
2 44031  51.6367 313.8949 0001792 104.0109 256.1089 15.72449017123156
CATSAT-1                
1 44033U 98067PZ  21089.55161850  .00320053  55573-4  54299-3 0  9999
2 44033  51.6374 284.8787 0006465 250.1478 109.8836 16.02068403123522
RAAVANA-1               
1 44329U 98067QE  21089.04126472  .00037318  00000-0  30526-3 0  9999
2 44329  51.6362 332.7526 0002664 357.2727   2.8255 15.70159204101655
UGUISU                  
1 44330U 98067QF  21089.39973166  .00037444  00000-0  30987-3 0  9990
2 44330  51.6335 331.3229 0002690 357.1880   2.9102 15.69876814101686
NEPALISAT-1             
1 44331U 98067QG  21089.09739982  .00038032  00000-0  31151-3 0  9992
2 44331  51.6336 332.3034 0002632   1.4088 358.6916 15.70118543101659
SPOOQY-1                
1 44332U 98067QH  21089.39733468  .00036381  00000-0  30473-3 0  9990
2 44332  51.6348 331.3368 0002225  10.9089 349.1956 15.69599392101658
SPACEBEE-9              
1 44370U 19037F   21088.96989663  .00025502  00000-0  40763-3 0  9990
2 44370  45.0016 310.9255 0007600 117.2381 242.9287 15.52730801 98819
SPACEBEE-8              
1 44371U 19037G   21089.00209430  .00250271  00000-0  12882-2 0  9997
2 44371  44.9970 281.4299 0011557 257.8997 102.0612 15.79656657 99169
IOD-1 GEMS              
1 44385U 98067QK  21089.00151791  .01147382  81849-3  11805-2 0  9994
2 44385  51.6250 313.5557 0010307 254.1429 105.8449 16.10090669 99379
MOVE-IIB                
1 44398U 19038N   21089.56930025  .00002308  00000-0  13241-3 0  9996
2 44398  97.5737  53.9824 0023285 219.2435 140.7103 15.13355518 95833
SONATE                  
1 44400U 19038Q   21089.52033524  .00000923  00000-0  56686-4 0  9996
2 44400  97.5803  53.8649 0023748 219.5382 140.4109 15.12414135 95803
LUCKY-7                 
1 44406U 19038W   21089.34585373  .00001116  00000-0  67078-4 0  9998
2 44406  97.5814  53.9051 0023194 218.3897 141.5684 15.12781208 95787
BEESAT 9                
1 44412U 19038AC  21089.18246498  .00001642  00000-0  96256-4 0  9993
2 44412  97.5798  53.7484 0020983 224.3781 135.5769 15.13050769 95469
JAISAT-1                
1 44419U 19038F   21089.30980128  .00001641  00000-0  94961-4 0  9999
2 44419  97.5801  54.3594 0019895 221.9976 137.9731 15.13535337 95823
SWIATOWID               
1 44426U 98067QL  21073.23590850  .07171462  12074-4  12707-2 0  9990
2 44426  51.6198  29.3922 0007231 188.0333 310.3019 16.31812792 96965
KRAKSAT                 
1 44427U 98067QM  21089.44340524  .00023682  00000-0  25212-3 0  9993
2 44427  51.6436 341.1932 0001653 280.0848 250.6832 15.63873774 99090
VCC A                   
1 44428U 98067QN  21089.13411154  .00033578  00000-0  29270-3 0  9991
2 44428  51.6374 335.6957 0000863 295.4765  64.6143 15.68669300 99144
ENTRYSAT                
1 44429U 98067QP  21089.27120425  .00056401  00000-0  39266-3 0  9991
2 44429  51.6310 328.9810 0001319 242.8247 117.2617 15.73801756 99247
VCC C                   
1 44430U 98067QQ  21089.07476981  .00145270  00000-0  60385-3 0  9991
2 44430  51.6290 321.6017 0003297 227.1799 132.8928 15.84791062 98157
VCC B                   
1 44431U 98067QR  21089.11086155  .00035152  00000-0  30212-3 0  9990
2 44431  51.6347 335.4689 0000911 296.5759  63.5144 15.68991426 99086
DUCHIFAT-3              
1 44854U 19089C   21089.55016708  .00000973  00000-0  84271-4 0  9999
2 44854  36.9649 207.2177 0007953 230.1619 129.8414 14.99400994 71259
EYESAT-NANO             
1 44877U 19092E   21089.50978492  .00002160  00000-0  11011-3 0  9991
2 44877  97.4590 274.2859 0014822 103.3465 256.9422 15.17736811 70964
ORBITAL FACTORY 2 (OF-2)
1 45113U 19071C   21089.06906061  .00004927  00000-0  15289-3 0  9990
2 45113  51.6423  62.2509 0012384   9.8810 350.2414 15.35164147 64977
M2 PATHFINDER           
1 45727U 20037E   21089.38111510  .00000535  00000-0  59086-4 0  9992
2 45727  97.7093 268.9295 0014170  71.2543 289.0287 14.91343109 40632
NETSAT-4                
1 46504U 20068U   21089.36036870  .00001069  00000-0  86016-4 0  9999
2 46504  97.6859  26.9032 0010531  32.8415 327.3459 15.02042640 27365
NETSAT-3                
1 46505U 20068V   21089.56493489  .00001312  00000-0  10470-3 0  9996
2 46505  97.6845  27.0836 0009174  30.6975 329.4799 15.01999862 27404
NETSAT-1                
1 46506U 20068W   21089.36982026  .00001518  00000-0  12052-3 0  9991
2 46506  97.6803  26.8681 0007591  30.1065 330.0593 15.01956553 27376
NETSAT-2                
1 46507U 20068X   21089.57202016  .00001585  00000-0  12580-3 0  9999
2 46507  97.6794  27.0702 0007274  27.5496 332.6115 15.01929337 27355
SPOC                    
1 46921U 98067RR  21089.08570356  .00008849  00000-0  14723-3 0  9995
2 46921  51.6440  11.3808 0002803 129.9957 230.1280 15.52867269 22528
BOBCAT-1                
1 46922U 98067RS  21089.04177371  .00013977  00000-0  21978-3 0  9990
2 46922  51.6448  11.0961 0002558 131.1839 228.9373 15.53902543 22484
NEUTRON-1               
1 46923U 98067RT  21089.28809692  .00009187  00000-0  15316-3 0  9992
2 46923  51.6439  10.4808 0002594 141.2135 218.9042 15.52756933 22581
1998-067RU              
1 46924U 98067RU  21089.02882854  .00023049  00000-0  33254-3 0  9990
2 46924  51.6423  10.2482 0002354 160.4168 199.6914 15.55873249 22535
DESCENT                 
1 46927U 98067RX  21089.03444301  .00009346  00000-0  15586-3 0  9997
2 46927  51.6439  11.7849 0002439 159.0682 201.0408 15.52726279 22451
